{
    "links": {
        "self": "http://www.neowsapp.com/rest/v1/neo/3584576?api_key=iIulBulltgU6a56xZRHN4H3l9WmuAYTsLGpBGhQ2"
    },
    "id": "3584576",
    "neo_reference_id": "3584576",
    "name": "(2011 UX255)",
    "designation": "2011 UX255",
    "nasa_jpl_url": "http://ssd.jpl.nasa.gov/sbdb.cgi?sstr=3584576",
    "absolute_magnitude_h": 27.4,
    "estimated_diameter": {
        "kilometers": {
            "estimated_diameter_min": 0.0088014652,
            "estimated_diameter_max": 0.0196806745
        },
        "meters": {
            "estimated_diameter_min": 8.801465209,
            "estimated_diameter_max": 19.6806745089
        },
        "miles": {
            "estimated_diameter_min": 0.0054689752,
            "estimated_diameter_max": 0.0122290004
        },
        "feet": {
            "estimated_diameter_min": 28.8761991163,
            "estimated_diameter_max": 64.5691441559
        }
    },
    "is_potentially_hazardous_asteroid": false,
    "close_approach_data": [
        {
            "close_approach_date": "2011-10-28",
            "close_approach_date_full": "2011-Oct-28 14:36",
            "epoch_date_close_approach": 1319812560000,
            "relative_velocity": {
                "kilometers_per_second": "26.3841444046",
                "kilometers_per_hour": "94982.9198565337",
                "miles_per_hour": "59018.6926186334"
            },
            "miss_distance": {
                "astronomical": "0.0021125612",
                "lunar": "0.8217863068",
                "kilometers": "316034.655764644",
                "miles": "196374.8290703272"
            },
            "orbiting_body": "Moon"
        },
        {
            "close_approach_date": "2011-10-28",
            "close_approach_date_full": "2011-Oct-28 17:43",
            "epoch_date_close_approach": 1319823780000,
            "relative_velocity": {
                "kilometers_per_second": "26.9906253942",
                "kilometers_per_hour": "97166.2514191484",
                "miles_per_hour": "60375.3299443037"
            },
            "miss_distance": {
                "astronomical": "0.0009255733",
                "lunar": "0.3600480137",
                "kilometers": "138463.794208871",
                "miles": "86037.4121135798"
            },
            "orbiting_body": "Earth"
        },
        {
            "close_approach_date": "2027-11-05",
            "close_approach_date_full": "2027-Nov-05 06:56",
            "epoch_date_close_approach": 1825397760000,
            "relative_velocity": {
                "kilometers_per_second": "31.752514488",
                "kilometers_per_hour": "114309.0521568436",
                "miles_per_hour": "71027.1996582343"
            },
            "miss_distance": {
                "astronomical": "0.1615376836",
                "lunar": "62.8381589204",
                "kilometers": "24165693.391293932",
                "miles": "15015865.5784109816"
            },
            "orbiting_body": "Earth"
        }
    ],
    "orbital_data": {
        "orbit_id": "6",
        "orbit_determination_date": "2017-04-06 08:52:09",
        "first_observation_date": "2011-10-30",
        "last_observation_date": "2011-11-01",
        "data_arc_in_days": 2,
        "observations_used": 30,
        "orbit_uncertainty": "8",
        "minimum_orbit_intersection": ".000840281",
        "jupiter_tisserand_invariant": "3.446",
        "epoch_osculation": "2455865.5",
        "eccentricity": ".7869621263429446",
        "semi_major_axis": "1.925793010128964",
        "inclination": "7.817654861025809",
        "ascending_node_longitude": "215.150078129003",
        "orbital_period": "976.1416327200029",
        "perihelion_distance": ".4102668479814946",
        "perihelion_argument": "70.1911680701154",
        "aphelion_distance": "3.441319172276433",
        "perihelion_time": "2455818.513538699000",
        "mean_anomaly": "17.32855714925945",
        "mean_motion": ".368798940576754",
        "equinox": "J2000",
        "orbit_class": {
            "orbit_class_type": "APO",
            "orbit_class_description": "Near-Earth asteroid orbits which cross the Earth’s orbit similar to that of 1862 Apollo",
            "orbit_class_range": "a (semi-major axis) > 1.0 AU; q (perihelion) < 1.017 AU"
        }
    },
    "is_sentry_object": false
}